[{"OBJECT_NAME":"COSMOS 2515","OBJECT_ID":"2016-020A","EPOCH":"2026-03-09T23:19:22.597248","MEAN_MOTION":15.0760084,"ECCENTRICITY":0.00222602,"INCLINATION":97.9825,"RA_OF_ASC_NODE":80.7081,"ARG_OF_PERICENTER":278.8424,"MEAN_ANOMALY":81.0282,"EPHEMERIS_TYPE":0,"CLASSIFICATION_TYPE":"U","NORAD_CAT_ID":41394,"ELEMENT_SET_NO":999,"REV_AT_EPOCH":54546,"BSTAR":0.00011725414,"MEAN_MOTION_DOT":1.724e-5,"MEAN_MOTION_DDOT":0},{"OBJECT_NAME":"STARLINK-3386","OBJECT_ID":"2022-005Y","EPOCH":"2026-03-09T21:22:14.765088","MEAN_MOTION":15.08839052,"ECCENTRICITY":0.00014515,"INCLINATION":53.2182,"RA_OF_ASC_NODE":298.2328,"ARG_OF_PERICENTER":80.3385,"MEAN_ANOMALY":279.7771,"EPHEMERIS_TYPE":0,"CLASSIFICATION_TYPE":"U","NORAD_CAT_ID":51126,"ELEMENT_SET_NO":999,"REV_AT_EPOCH":22877,"BSTAR":5.3595667e-5,"MEAN_MOTION_DOT":5.65e-6,"MEAN_MOTION_DDOT":0}]
